ONEWEB-0098             
1 45442U 20020U   25349.93016455 -.00000166  00000+0 -50443-3 0  9992
2 45442  87.8863  57.5543 0001717 100.0569 260.0753 13.11418790278620
ONEWEB-0055             
1 45443U 20020V   25349.91320413 -.00000546  00000+0 -15772-2 0  9990
2 45443  87.8861  57.5585 0001727 100.7850 259.3473 13.11414676278591
ONEWEB-0093             
1 45444U 20020W   25349.88878022  .00000252  00000+0  67399-3 0  9996
2 45444  87.8863  57.5504 0002149 108.5293 251.6069 13.11414852278650
ONEWEB-0029             
1 45445U 20020X   25349.75213851 -.00000397  00000+0 -11573-2 0  9990
2 45445  87.8863  57.5901 0001874 101.9111 258.2227 13.11416027278613
ONEWEB-0068             
1 45446U 20020Y   25349.88850342  .00000307  00000+0  82952-3 0  9996
2 45446  87.8864  57.5521 0001933 102.0431 258.0914 13.11416188278570
ONEWEB-0046             
1 45447U 20020Z   25349.72757574  .00000448  00000+0  12295-2 0  9991
2 45447  87.8863  57.5919 0001883 110.0047 250.1284 13.11414302278565
ONEWEB-0063             
1 45448U 20020AA  25349.75638578 -.00000450  00000+0 -13061-2 0  9994
2 45448  87.8862  57.5841 0001696 111.3805 248.7504 13.11418604278654
ONEWEB-0019             
1 45449U 20020AB  25349.72467577  .00000416  00000+0  11275-2 0  9996
2 45449  87.8849  57.5967 0001730  97.9649 262.1676 13.11990753278495
